SatCatId,ObjectName,LaunchYear,OrbitalPeriod,LaunchMass,StatusCode,Inclination,Status,UcsData,OrbitClassEstimated,LaunchSiteCountry,Owner,UseType,Purpose,LaunchVehicleClass,TLE1,TLE2,MeanMotion,Eccentricity,OrbitClass
54206,STARLINK-5264,2022,95.44,260.0,+,53.22,Active,1,LEO,USA,USA,Commercial,Communications,Falcon,1 54206U 22141BB  24306.88117587  .00001460  00000+0  10978-3 0  9995,2 54206  53.2163  11.2605 0001412  83.6998 276.4155 15.08838905112321,15.08838905,0.0001412,LEO
54207,STARLINK-5262,2022,95.44,260.0,+,53.22,Active,1,LEO,USA,USA,Commercial,Communications,Falcon,1 54207U 22141BC  24307.52744749 -.00002562  00000+0 -14295-3 0  9996,2 54207  53.2173  43.1307 0001396 101.5101 258.6048 15.08830923111934,15.08830923,0.0001396,LEO
54208,STARLINK-5255,2022,95.44,260.0,+,53.22,Active,1,LEO,USA,USA,Commercial,Communications,Falcon,1 54208U 22141BD  24307.49853006  .00000967  00000+0  78855-4 0  9998,2 54208  53.2175  18.7008 0001368  82.5695 277.5453 15.08821556112278,15.08821556,0.0001368,LEO
54209,STARLINK-5259,2022,95.44,260.0,+,53.22,Active,1,LEO,USA,USA,Commercial,Communications,Falcon,1 54209U 22141BE  24307.53205909 -.00000327  00000+0 -24645-5 0  9998,2 54209  53.2174  33.1602 0001453 101.2846 258.8310 15.08832643112072,15.08832643,0.0001453,LEO
54214,SHIYAN 20C (SY-20C),2022,100.76,-1.0,+,59.99,Active,0,LEO,PRC,China,Unknown,Unknown,Unknown,1 54214U 22142A   24307.54121297  .00000694  00000+0  32560-3 0  9991,2 54214  59.9948  95.2070 0020775 148.6270 211.6008 14.29142665105110,14.29142665,0.0020775,LEO
54219,LDPE-2,2022,1428.66,-1.0,+,4.14,Active,0,GSO,USA,USA,Unknown,Unknown,Unknown,1 54219U 22144A   24306.53872307  .00000086  00000+0  00000+0 0  9996,2 54219   4.1443  64.8611 0000261 335.6301  51.2050  1.00793447  5873,1.00793447,2.61e-05,GSO
54223,COSMOS 2563,2022,717.9,-1.0,+,63.8,Active,0,MEO,Russia,Russia/USSR,Unknown,Unknown,Unknown,1 54223U 22145A   24307.48418568 -.00000866  00000+0  00000+0 0  9999,2 54223  63.8013 358.9559 7192796 268.8650  15.7264  2.00581427 14660,2.00581427,0.7192796,MEO
54225,EUTELSAT HOTBIRD 13G,2022,1436.0,4500.0,+,0.05,Active,1,GSO,USA,EUTELSAT,Commercial,Communications,Falcon,1 54225U 22146A   24304.04841050  .00000099  00000+0  00000+0 0  9994,2 54225   0.0374 241.3647 0001828 297.8040 250.1593  1.00273831  1517,1.00273831,0.0001828,GEO
54227,MATS,2022,96.05,-1.0,+,97.67,Active,0,LEO,New Zealand,Sweden,Unknown,Unknown,Unknown,1 54227U 22147A   24307.54006722  .00012233  00000+0  10043-2 0  9998,2 54227  97.6703 303.7035 0013365  39.0619 321.1566 14.99272670108911,14.9927267,0.0013365,LEO
54230,ZHONGXING-19,2022,1436.09,-1.0,+,0.01,Active,0,GSO,PRC,China,Unknown,Unknown,Unknown,1 54230U 22148A   24306.88559792 -.00000060  00000+0  00000+0 0  9994,2 54230   0.0132 256.2480 0009937 342.1309 285.5041  1.00272034  7448,1.00272034,0.0009937,GEO
54234,NOAA 21 (JPSS-2),2022,101.45,-1.0,+,98.7,Active,0,LEO,USA,USA,Unknown,Unknown,Unknown,1 54234U 22150A   24306.89367597  .00000715  00000+0  35997-3 0  9995,2 54234  98.7032 243.2113 0002397  98.5689 261.5759 14.19476840102519,14.1947684,0.0002397,LEO
54235,YUNHAI-3 01,2022,101.88,-1.0,+,98.82,Active,0,LEO,PRC,China,Unknown,Unknown,Unknown,1 54235U 22151A   24307.54520571  .00000309  00000+0  18793-3 0  9997,2 54235  98.8205 312.3047 0000971  36.9510 323.1729 14.13359547101926,14.13359547,9.71e-05,LEO
54243,GALAXY 31 (G-31),2022,1436.1,-1.0,+,0.01,Active,0,GSO,USA,INTELSAT,Unknown,Unknown,Unknown,1 54243U 22153A   24306.90054134  .00000033  00000+0  00000+0 0  9996,2 54243   0.0117 257.4687 0001322 327.0415  20.3809  1.00271785  1192,1.00271785,0.0001322,GEO
54244,GALAXY 32 (G-32),2022,1436.12,-1.0,+,0.02,Active,0,GSO,USA,INTELSAT,Unknown,Unknown,Unknown,1 54244U 22153B   24306.97814344 -.00000155  00000+0  00000+0 0  9997,2 54244   0.0196 289.9188 0001263   5.0574   7.9170  1.00272519  7227,1.00272519,0.0001263,GEO
54249,YAOGAN-34 03,2022,107.03,-1.0,+,63.41,Active,0,LEO,PRC,China,Unknown,Unknown,Unknown,1 54249U 22154A   24307.52741469 -.00000005  00000+0  14234-3 0  9994,2 54249  63.4081 341.6768 0063202 353.1461   6.8695 13.45355497 96655,13.45355497,0.0063202,LEO
54251,JILIN-1 GAOFEN 03D08,2022,94.54,-1.0,+,97.57,Active,0,LEO,PRC,China,Unknown,Unknown,Unknown,1 54251U 22155A   24307.55131143  .00040955  00000+0  17196-2 0  9999,2 54251  97.5715  58.7247 0007574 322.8385  37.2326 15.23310023108697,15.23310023,0.0007574,LEO
54252,JILIN-1 GAOFEN 03D51,2022,94.58,-1.0,+,97.57,Active,0,LEO,PRC,China,Unknown,Unknown,Unknown,1 54252U 22155B   24307.52655107  .00041665  00000+0  17817-2 0  9997,2 54252  97.5750  58.8628 0008819 323.6742  36.3894 15.22675837108685,15.22675837,0.0008819,LEO
54253,JILIN-1 GAOFEN 03D53,2022,94.59,-1.0,+,97.57,Active,0,LEO,PRC,China,Unknown,Unknown,Unknown,1 54253U 22155C   24307.48737329  .00039718  00000+0  17097-2 0  9996,2 54253  97.5720  58.4887 0009745 329.3626  30.7040 15.22454724108668,15.22454724,0.0009745,LEO
54254,JILIN-1 GAOFEN 03D54,2022,94.4,-1.0,+,97.57,Active,0,LEO,PRC,China,Unknown,Unknown,Unknown,1 54254U 22155D   24307.48878622  .00044211  00000+0  17397-2 0  9996,2 54254  97.5730  58.9792 0008889 329.3994  30.6724 15.25464246108702,15.25464246,0.0008889,LEO
54255,JILIN-1 GAOFEN 03D52,2022,94.52,-1.0,+,97.57,Active,0,LEO,PRC,China,Unknown,Unknown,Unknown,1 54255U 22155E   24307.52007400  .00039872  00000+0  16627-2 0  9992,2 54255  97.5690  58.4716 0010775 331.5260  28.5386 15.23521333108694,15.23521333,0.0010775,LEO
54259,EUTELSAT 10B,2022,1436.14,-1.0,+,0.06,Active,0,GSO,USA,EUTELSAT,Unknown,Unknown,Unknown,1 54259U 22157A   24307.35743944  .00000089  00000+0  00000+0 0  9992,2 54259   0.0569  84.6027 0000466  46.5630  49.6584  1.00272014  7116,1.00272014,4.66e-05,GEO
54361,EOS-6 (OCEANSAT-3),2022,99.52,-1.0,+,98.36,Active,0,LEO,India,India,Unknown,Unknown,Unknown,1 54361U 22158A   24307.52322694  .00002328  00000+0  65234-3 0  9993,2 54361  98.3551  42.6974 0001330  99.2320 260.9023 14.46971079102278,14.46971079,0.000133,LEO
54367,ASTROCAST-0304,2022,93.39,-1.0,+,97.44,Active,0,LEO,India,Switzerland,Unknown,Unknown,Unknown,1 54367U 22158G   24307.53794994  .00053344  00000+0  12422-2 0  9990,2 54367  97.4436  52.2329 0006543 297.5947  62.4636 15.42084849108016,15.42084849,0.0006543,LEO
54368,ASTROCAST-0303,2022,92.1,-1.0,+,97.44,Active,0,LEO,India,Switzerland,Unknown,Unknown,Unknown,1 54368U 22158H   24307.44082838  .00372765  00000+0  37400-2 0  9992,2 54368  97.4397  54.0024 0008026 337.8755  22.2156 15.64291421108110,15.64291421,0.0008026,LEO
54369,ASTROCAST-0302,2022,93.39,-1.0,+,97.45,Active,0,LEO,India,Switzerland,Unknown,Unknown,Unknown,1 54369U 22158J   24307.56879427  .00056287  00000+0  13100-2 0  9993,2 54369  97.4470  52.6004 0004247 304.4852  55.5993 15.42100263108032,15.42100263,0.0004247,LEO
54370,ASTROCAST-0301,2022,93.39,-1.0,+,97.45,Active,0,LEO,India,Switzerland,Unknown,Unknown,Unknown,1 54370U 22158K   24307.55444845  .00047097  00000+0  11029-2 0  9993,2 54370  97.4502  52.7520 0004461 319.8563  40.2354 15.41958606108034,15.41958606,0.0004461,LEO
54372,YAOGAN-36 03A,2022,94.54,-1.0,+,34.99,Active,0,LEO,PRC,China,Unknown,Unknown,Unknown,1 54372U 22160A   24307.47753539  .00038003  00000+0  15537-2 0  9997,2 54372  34.9933 103.9473 0008643  11.7346 348.3569 15.23338970107742,15.2333897,0.0008643,LEO
54374,YAOGAN-36 03B,2022,94.54,-1.0,+,34.99,Active,0,LEO,PRC,China,Unknown,Unknown,Unknown,1 54374U 22160C   24307.48050993  .00030993  00000+0  12712-2 0  9996,2 54374  34.9946 103.9902 0003444  39.9196 320.1772 15.23298805107706,15.23298805,0.0003444,LEO
54376,YAOGAN-36 03C,2022,94.55,-1.0,+,35.01,Active,0,LEO,PRC,China,Unknown,Unknown,Unknown,1 54376U 22160E   24306.76074129  .00026008  00000+0  10774-2 0  9993,2 54376  35.0035 104.8871 0013064  86.8862 273.3348 15.22922903107670,15.22922903,0.0013064,LEO
54377,COSMOS 2564 [GLONASS-M],2022,675.73,-1.0,+,64.74,Active,0,MEO,Russia,Russia/USSR,Unknown,Unknown,Unknown,1 54377U 22161A   24306.09683888  .00000025  00000+0  00000+0 0  9998,2 54377  64.7381 212.4174 0009099 216.2004 143.7900  2.13102213 14992,2.13102213,0.0009099,MEO
54381,COSMOS 2565,2022,103.1,-1.0,+,67.14,Active,0,LEO,Russia,Russia/USSR,Unknown,Unknown,Unknown,1 54381U 22163A   24307.51301318  .00000151  00000+0  16270-3 0  9998,2 54381  67.1452 105.3022 0005426 261.9951  98.0517 13.96674454 98142,13.96674454,0.0005426,LEO
54383,COSMOS 2566,2022,103.04,-1.0,+,67.14,Active,0,LEO,Russia,Russia/USSR,Unknown,Unknown,Unknown,1 54383U 22163C   24306.92816714  .00000368  00000+0  31433-3 0  9993,2 54383  67.1401 104.2476 0010242 213.5912 146.4525 13.97548832 97801,13.97548832,0.0010242,LEO
54588,JIAOTONG VDES,2022,99.62,-1.0,+,98.29,Active,0,LEO,PRC,China,Unknown,Unknown,Unknown,1 54588U 22164A   24307.51435044  .00001208  00000+0  35520-3 0  9995,2 54588  98.2902 330.8257 0009210 334.1055  25.9674 14.45432544100586,14.45432544,0.000921,LEO
54640,GAOFEN-5 01A,2022,98.78,-1.0,+,98.18,Active,0,LEO,PRC,China,Unknown,Unknown,Unknown,1 54640U 22165A   24307.50031814  .00003525  00000+0  77966-3 0  9995,2 54640  98.1812 241.7923 0002062  83.6245 276.5188 14.57843995101224,14.57843995,0.0002062,LEO
54642,ONEWEB-0527,2022,108.94,148.0,+,87.93,Active,1,LEO,USA,UK,Commercial,Communications,Falcon,1 54642U 22166A   24307.14976024 -.00001204  00000+0 -29464-2 0  9992,2 54642  87.9341   1.9229 0001857  94.8579 265.2767 13.21833582 93778,13.21833582,0.0001857,LEO
54643,ONEWEB-0528,2022,108.94,148.0,+,87.93,Active,1,LEO,USA,UK,Commercial,Communications,Falcon,1 54643U 22166B   24307.15609320  .00000186  00000+0  41929-3 0  9993,2 54643  87.9345   1.9131 0001904  94.3161 265.8191 13.21826336 93787,13.21826336,0.0001904,LEO
54644,ONEWEB-0539,2022,108.94,148.0,+,87.94,Active,1,LEO,USA,UK,Commercial,Communications,Falcon,1 54644U 22166C   24306.88955558 -.00000162  00000+0 -42279-3 0  9995,2 54644  87.9346   1.9699 0001914 102.8584 257.2764 13.21825309 93299,13.21825309,0.0001914,LEO
